HST                     
1 20580U 90037B   26068.15977042  .00009063  00000+0  30023-3 0  9999
2 20580  28.4717  43.6133 0001837 120.9992 239.0785 15.29473555773239
STARLINK-35485          
1 66251U 25245T   26068.85730775  .00042204  00000+0  14295-2 0  9996
2 66251  53.1586 283.0093 0001090 152.8442 207.2616 15.30187722 21060
